CENTAURI-6              
1 59451U 24066K   26068.32290132  .00007311  00000+0  52686-3 0  9997
2 59451  45.6063  55.7055 0002534 285.4438  74.6166 15.04786474105074
STARLINK-34978          
1 65435U 25194B   26068.57495038  .00003533  00000+0  24896-3 0  9992
2 65435  97.6018 284.3301 0002420  75.6607 284.4889 15.05648422 29636
